CCSDS_OMM_VERS = 2.0
CREATION_DATE  = 
ORIGINATOR     = 

OBJECT_NAME    = H-2A R/B
OBJECT_ID      = 2006-002B
CENTER_NAME    = EARTH
REF_FRAME      = TEME
TIME_SYSTEM    = UTC
MEAN_ELEMENT_THEORY = SGP/SGP4

EPOCH          = 2026-03-17T03:08:53.048256
MEAN_MOTION    = 15.16589419
ECCENTRICITY   = .00519962
INCLINATION    = 98.2418
RA_OF_ASC_NODE = 223.7965
ARG_OF_PERICENTER = 215.3822
MEAN_ANOMALY   = 144.3955

EPHEMERIS_TYPE = 0
CLASSIFICATION_TYPE = U
NORAD_CAT_ID   = 28932
ELEMENT_SET_NO = 999
REV_AT_EPOCH   = 9556
BSTAR          = .42533398E-3
MEAN_MOTION_DOT = .852E-4
MEAN_MOTION_DDOT = 0

CCSDS_OMM_VERS = 2.0
CREATION_DATE  = 
ORIGINATOR     = 

OBJECT_NAME    = RESURS-DK 1
OBJECT_ID      = 2006-021A
CENTER_NAME    = EARTH
REF_FRAME      = TEME
TIME_SYSTEM    = UTC
MEAN_ELEMENT_THEORY = SGP/SGP4

EPOCH          = 2026-03-16T19:24:54.767808
MEAN_MOTION    = 15.12798052
ECCENTRICITY   = .00011282
INCLINATION    = 69.9330
RA_OF_ASC_NODE = 218.6056
ARG_OF_PERICENTER = 150.4180
MEAN_ANOMALY   = 209.7050

EPHEMERIS_TYPE = 0
CLASSIFICATION_TYPE = U
NORAD_CAT_ID   = 29228
ELEMENT_SET_NO = 999
REV_AT_EPOCH   = 8860
BSTAR          = .16831909E-3
MEAN_MOTION_DOT = .2855E-4
MEAN_MOTION_DDOT = 0

CCSDS_OMM_VERS = 2.0
CREATION_DATE  = 
ORIGINATOR     = 

OBJECT_NAME    = CZ-4B R/B
OBJECT_ID      = 2006-046C
CENTER_NAME    = EARTH
REF_FRAME      = TEME
TIME_SYSTEM    = UTC
MEAN_ELEMENT_THEORY = SGP/SGP4

EPOCH          = 2026-03-17T03:05:53.947104
MEAN_MOTION    = 15.16982192
ECCENTRICITY   = .00318413
INCLINATION    = 97.5582
RA_OF_ASC_NODE = 121.0180
ARG_OF_PERICENTER = 240.2506
MEAN_ANOMALY   = 119.5558

EPHEMERIS_TYPE = 0
CLASSIFICATION_TYPE = U
NORAD_CAT_ID   = 29507
ELEMENT_SET_NO = 999
REV_AT_EPOCH   = 6117
BSTAR          = .19555038E-3
MEAN_MOTION_DOT = .384E-4
MEAN_MOTION_DDOT = 0

CCSDS_OMM_VERS = 2.0
CREATION_DATE  = 
ORIGINATOR     = 

OBJECT_NAME    = CZ-2C R/B
OBJECT_ID      = 2007-010B
CENTER_NAME    = EARTH
REF_FRAME      = TEME
TIME_SYSTEM    = UTC
MEAN_ELEMENT_THEORY = SGP/SGP4

EPOCH          = 2026-03-17T04:38:48.228000
MEAN_MOTION    = 14.20248903
ECCENTRICITY   = .00578309
INCLINATION    = 98.3985
RA_OF_ASC_NODE = 189.0964
ARG_OF_PERICENTER = 272.3761
MEAN_ANOMALY   = 87.0796

EPHEMERIS_TYPE = 0
CLASSIFICATION_TYPE = U
NORAD_CAT_ID   = 31114
ELEMENT_SET_NO = 999
REV_AT_EPOCH   = 98078
BSTAR          = .69260454E-4
MEAN_MOTION_DOT = .109E-5
MEAN_MOTION_DDOT = 0

CCSDS_OMM_VERS = 2.0
CREATION_DATE  = 
ORIGINATOR     = 

OBJECT_NAME    = COSMO-SKYMED 1
OBJECT_ID      = 2007-023A
CENTER_NAME    = EARTH
REF_FRAME      = TEME
TIME_SYSTEM    = UTC
MEAN_ELEMENT_THEORY = SGP/SGP4

EPOCH          = 2026-03-17T06:52:42.857760
MEAN_MOTION    = 14.96600663
ECCENTRICITY   = .00015684
INCLINATION    = 97.8881
RA_OF_ASC_NODE = 267.3805
ARG_OF_PERICENTER = 90.5018
MEAN_ANOMALY   = 269.6383

EPHEMERIS_TYPE = 0
CLASSIFICATION_TYPE = U
NORAD_CAT_ID   = 31598
ELEMENT_SET_NO = 999
REV_AT_EPOCH   = 1604
BSTAR          = .28769551E-3
MEAN_MOTION_DOT = .3217E-4
MEAN_MOTION_DDOT = 0

CCSDS_OMM_VERS = 2.0
CREATION_DATE  = 
ORIGINATOR     = 

OBJECT_NAME    = COSMOS 2428
OBJECT_ID      = 2007-029A
CENTER_NAME    = EARTH
REF_FRAME      = TEME
TIME_SYSTEM    = UTC
MEAN_ELEMENT_THEORY = SGP/SGP4

EPOCH          = 2026-03-17T06:01:58.965024
MEAN_MOTION    = 14.12947296
ECCENTRICITY   = .00093979
INCLINATION    = 70.9439
RA_OF_ASC_NODE = 187.4726
ARG_OF_PERICENTER = 269.4010
MEAN_ANOMALY   = 90.6035

EPHEMERIS_TYPE = 0
CLASSIFICATION_TYPE = U
NORAD_CAT_ID   = 31792
ELEMENT_SET_NO = 999
REV_AT_EPOCH   = 96516
BSTAR          = .14996607E-4
MEAN_MOTION_DOT = -.2E-6
MEAN_MOTION_DDOT = 0

CCSDS_OMM_VERS = 2.0
CREATION_DATE  = 
ORIGINATOR     = 

OBJECT_NAME    = SL-16 R/B
OBJECT_ID      = 2007-029B
CENTER_NAME    = EARTH
REF_FRAME      = TEME
TIME_SYSTEM    = UTC
MEAN_ELEMENT_THEORY = SGP/SGP4

EPOCH          = 2026-03-17T00:13:15.670560
MEAN_MOTION    = 14.14836866
ECCENTRICITY   = .00022883
INCLINATION    = 70.9757
RA_OF_ASC_NODE = 156.9998
ARG_OF_PERICENTER = 276.3877
MEAN_ANOMALY   = 256.5317

EPHEMERIS_TYPE = 0
CLASSIFICATION_TYPE = U
NORAD_CAT_ID   = 31793
ELEMENT_SET_NO = 999
REV_AT_EPOCH   = 96640
BSTAR          = .18697277E-3
MEAN_MOTION_DOT = .313E-5
MEAN_MOTION_DDOT = 0

CCSDS_OMM_VERS = 2.0
CREATION_DATE  = 
ORIGINATOR     = 

OBJECT_NAME    = KORONAS-FOTON
OBJECT_ID      = 2009-003A
CENTER_NAME    = EARTH
REF_FRAME      = TEME
TIME_SYSTEM    = UTC
MEAN_ELEMENT_THEORY = SGP/SGP4

EPOCH          = 2026-03-17T00:36:59.530464
MEAN_MOTION    = 15.43502654
ECCENTRICITY   = .00117026
INCLINATION    = 82.4270
RA_OF_ASC_NODE = 268.2495
ARG_OF_PERICENTER = 125.6134
MEAN_ANOMALY   = 234.6205

EPHEMERIS_TYPE = 0
CLASSIFICATION_TYPE = U
NORAD_CAT_ID   = 33504
ELEMENT_SET_NO = 999
REV_AT_EPOCH   = 94687
BSTAR          = .25307106E-3
MEAN_MOTION_DOT = .11407E-3
MEAN_MOTION_DDOT = 0

CCSDS_OMM_VERS = 2.0
CREATION_DATE  = 
ORIGINATOR     = 

OBJECT_NAME    = CZ-2C R/B
OBJECT_ID      = 2011-030B
CENTER_NAME    = EARTH
REF_FRAME      = TEME
TIME_SYSTEM    = UTC
MEAN_ELEMENT_THEORY = SGP/SGP4

EPOCH          = 2026-03-16T21:48:23.486688
MEAN_MOTION    = 14.81250046
ECCENTRICITY   = .00518011
INCLINATION    = 97.8556
RA_OF_ASC_NODE = 33.0277
ARG_OF_PERICENTER = 328.4169
MEAN_ANOMALY   = 98.2177

EPHEMERIS_TYPE = 0
CLASSIFICATION_TYPE = U
NORAD_CAT_ID   = 37731
ELEMENT_SET_NO = 999
REV_AT_EPOCH   = 79116
BSTAR          = .19263768E-3
MEAN_MOTION_DOT = .1481E-4
MEAN_MOTION_DDOT = 0

CCSDS_OMM_VERS = 2.0
CREATION_DATE  = 
ORIGINATOR     = 

OBJECT_NAME    = H-2A R/B
OBJECT_ID      = 2012-025E
CENTER_NAME    = EARTH
REF_FRAME      = TEME
TIME_SYSTEM    = UTC
MEAN_ELEMENT_THEORY = SGP/SGP4

EPOCH          = 2026-03-17T03:45:50.769504
MEAN_MOTION    = 14.95223041
ECCENTRICITY   = .00432916
INCLINATION    = 98.4736
RA_OF_ASC_NODE = 43.8012
ARG_OF_PERICENTER = 289.1066
MEAN_ANOMALY   = 70.5468

EPHEMERIS_TYPE = 0
CLASSIFICATION_TYPE = U
NORAD_CAT_ID   = 38341
ELEMENT_SET_NO = 999
REV_AT_EPOCH   = 74933
BSTAR          = .21632633E-3
MEAN_MOTION_DOT = .2352E-4
MEAN_MOTION_DDOT = 0

CCSDS_OMM_VERS = 2.0
CREATION_DATE  = 
ORIGINATOR     = 

OBJECT_NAME    = SHIJIAN-16 (SJ-16)
OBJECT_ID      = 2013-057A
CENTER_NAME    = EARTH
REF_FRAME      = TEME
TIME_SYSTEM    = UTC
MEAN_ELEMENT_THEORY = SGP/SGP4

EPOCH          = 2026-03-17T06:30:46.839744
MEAN_MOTION    = 14.92381789
ECCENTRICITY   = .00153681
INCLINATION    = 74.9735
RA_OF_ASC_NODE = 170.7369
ARG_OF_PERICENTER = 93.0636
MEAN_ANOMALY   = 267.2311

EPHEMERIS_TYPE = 0
CLASSIFICATION_TYPE = U
NORAD_CAT_ID   = 39358
ELEMENT_SET_NO = 999
REV_AT_EPOCH   = 67263
BSTAR          = .19121077E-3
MEAN_MOTION_DOT = .1933E-4
MEAN_MOTION_DDOT = 0

CCSDS_OMM_VERS = 2.0
CREATION_DATE  = 
ORIGINATOR     = 

OBJECT_NAME    = SL-4 R/B
OBJECT_ID      = 2014-021B
CENTER_NAME    = EARTH
REF_FRAME      = TEME
TIME_SYSTEM    = UTC
MEAN_ELEMENT_THEORY = SGP/SGP4

EPOCH          = 2026-03-16T23:09:39.302208
MEAN_MOTION    = 15.39428092
ECCENTRICITY   = .00968704
INCLINATION    = 51.6063
RA_OF_ASC_NODE = 301.7801
ARG_OF_PERICENTER = 129.5376
MEAN_ANOMALY   = 231.4219

EPHEMERIS_TYPE = 0
CLASSIFICATION_TYPE = U
NORAD_CAT_ID   = 39679
ELEMENT_SET_NO = 999
REV_AT_EPOCH   = 65739
BSTAR          = .31321165E-3
MEAN_MOTION_DOT = .14258E-3
MEAN_MOTION_DDOT = 0

